[{"OBJECT_NAME":"YUNHAI-2 01A","OBJECT_ID":"2018-112A","EPOCH":"2026-03-09T22:34:33.618432","MEAN_MOTION":14.28975171,"ECCENTRICITY":4.652e-5,"INCLINATION":50.0087,"RA_OF_ASC_NODE":105.4873,"ARG_OF_PERICENTER":228.8508,"MEAN_ANOMALY":131.2367,"EPHEMERIS_TYPE":0,"CLASSIFICATION_TYPE":"U","NORAD_CAT_ID":43909,"ELEMENT_SET_NO":999,"REV_AT_EPOCH":37689,"BSTAR":7.7064636e-5,"MEAN_MOTION_DOT":3.5e-7,"MEAN_MOTION_DDOT":0},{"OBJECT_NAME":"CZ-6A DEB","OBJECT_ID":"2022-151QL","EPOCH":"2026-03-09T00:34:06.387456","MEAN_MOTION":14.27570828,"ECCENTRICITY":0.00251476,"INCLINATION":98.7792,"RA_OF_ASC_NODE":87.4654,"ARG_OF_PERICENTER":240.3682,"MEAN_ANOMALY":119.4994,"EPHEMERIS_TYPE":0,"CLASSIFICATION_TYPE":"U","NORAD_CAT_ID":54899,"ELEMENT_SET_NO":999,"REV_AT_EPOCH":16939,"BSTAR":0.0018763102,"MEAN_MOTION_DOT":4.589e-5,"MEAN_MOTION_DDOT":0}]
